{
    "links": {
        "self": "http://www.neowsapp.com/rest/v1/neo/3797907?api_key=iIulBulltgU6a56xZRHN4H3l9WmuAYTsLGpBGhQ2"
    },
    "id": "3797907",
    "neo_reference_id": "3797907",
    "name": "(2018 BN5)",
    "designation": "2018 BN5",
    "nasa_jpl_url": "http://ssd.jpl.nasa.gov/sbdb.cgi?sstr=3797907",
    "absolute_magnitude_h": 25.9,
    "estimated_diameter": {
        "kilometers": {
            "estimated_diameter_min": 0.0175612318,
            "estimated_diameter_max": 0.0392681082
        },
        "meters": {
            "estimated_diameter_min": 17.561231848,
            "estimated_diameter_max": 39.2681081809
        },
        "miles": {
            "estimated_diameter_min": 0.0109120402,
            "estimated_diameter_max": 0.0244000636
        },
        "feet": {
            "estimated_diameter_min": 57.6155918963,
            "estimated_diameter_max": 128.8323800441
        }
    },
    "is_potentially_hazardous_asteroid": false,
    "close_approach_data": [
        {
            "close_approach_date": "2018-02-03",
            "close_approach_date_full": "2018-Feb-03 14:45",
            "epoch_date_close_approach": 1517669100000,
            "relative_velocity": {
                "kilometers_per_second": "9.4010916427",
                "kilometers_per_hour": "33843.9299137176",
                "miles_per_hour": "21029.3018955541"
            },
            "miss_distance": {
                "astronomical": "0.0406942161",
                "lunar": "15.8300500629",
                "kilometers": "6087768.049879707",
                "miles": "3782763.6571136766"
            },
            "orbiting_body": "Earth"
        }
    ],
    "orbital_data": {
        "orbit_id": "2",
        "orbit_determination_date": "2019-07-19 05:26:33",
        "first_observation_date": "2018-01-23",
        "last_observation_date": "2018-01-25",
        "data_arc_in_days": 2,
        "observations_used": 23,
        "orbit_uncertainty": "8",
        "minimum_orbit_intersection": ".0399472",
        "jupiter_tisserand_invariant": "3.653",
        "epoch_osculation": "2458142.5",
        "eccentricity": ".5119096650211095",
        "semi_major_axis": "2.003378810963535",
        "inclination": "8.139246281520382",
        "ascending_node_longitude": "123.3861886363306",
        "orbital_period": "1035.721617716439",
        "perihelion_distance": ".9778298349328032",
        "perihelion_argument": "38.1127201487239",
        "aphelion_distance": "3.028927786994267",
        "perihelion_time": "2458174.797895873454",
        "mean_anomaly": "348.7737763550024",
        "mean_motion": ".3475837462905609",
        "equinox": "J2000",
        "orbit_class": {
            "orbit_class_type": "APO",
            "orbit_class_description": "Near-Earth asteroid orbits which cross the Earth’s orbit similar to that of 1862 Apollo",
            "orbit_class_range": "a (semi-major axis) > 1.0 AU; q (perihelion) < 1.017 AU"
        }
    },
    "is_sentry_object": false
}